STARLINK-35197          
1 66193U 25243S   25327.38757044  .00050298  00000+0  90596-3 0  9993
2 66193  53.1593  19.3555 0001044  67.3530 292.7589 15.49329049  4376
STARLINK-35374          
1 66194U 25243T   25327.38791509  .00068993  00000+0  12368-2 0  9999
2 66194  53.1594  19.3584 0001307  89.2806 270.8352 15.49328215  4370
STARLINK-34813          
1 66195U 25243U   25327.38825839  .00054837  00000+0  98610-3 0  9991
2 66195  53.1593  19.3614 0001047  81.9027 278.2101 15.49338369  4374
STARLINK-35409          
1 66196U 25243V   25327.38860043  .00051204  00000+0  92225-3 0  9999
2 66196  53.1593  19.3645 0001032  86.3379 273.7748 15.49321912  4375
STARLINK-35518          
1 66197U 25243X   25327.38928984  .00048723  00000+0  87841-3 0  9999
2 66197  53.1591  19.3686 0001055  82.8308 277.2821 15.49316575  4377
STARLINK-35259          
1 66198U 25243W   25327.50002315 -.01983909  00000+0 -61302-1 0  9994
2 66198  53.1592  18.8863 0001723  72.4753 160.4783 15.36667459  5491
STARLINK-35509          
1 66199U 25243Y   25327.44658282  .00070004  00000+0  12541-2 0  9990
2 66199  53.1594  19.0098 0001067  85.8343 274.2788 15.49341095  4386
STARLINK-35551          
1 66200U 25243Z   25327.44726939  .00069686  00000+0  12482-2 0  9996
2 66200  53.1595  19.0145 0000886  80.2397 279.8712 15.49346457  4384
STARLINK-35543          
1 66201U 25243AA  25327.31859892  .00074326  00000+0  13315-2 0  9991
2 66201  53.1594  19.6332 0000882  79.3789 280.7319 15.49315245  4361
STARLINK-35534          
1 66202U 25243AB  25327.44795735  .00095617  00000+0  17048-2 0  9994
2 66202  53.1595  19.0197 0001214  70.2028 289.9112 15.49333465  4380
STARLINK-35548          
1 66203U 25243AC  25327.44830786  .00093986  00000+0  16779-2 0  9998
2 66203  53.1596  19.0226 0001941  33.0660 327.0470 15.49305082  4386
STARLINK-35490          
1 66204U 25243AD  25327.32015218  .00099144  00000+0  18492-2 0  9997
2 66204  53.1592  19.6439 0003183 344.5710  15.5201 15.48022939  4366
