CCSDS_OMM_VERS = 2.0
CREATION_DATE  = 
ORIGINATOR     = 

OBJECT_NAME    = STARLINK-35197
OBJECT_ID      = 2025-243S
CENTER_NAME    = EARTH
REF_FRAME      = TEME
TIME_SYSTEM    = UTC
MEAN_ELEMENT_THEORY = SGP/SGP4

EPOCH          = 2025-11-23T09:18:06.086016
MEAN_MOTION    = 15.49329049
ECCENTRICITY   = .0001044
INCLINATION    = 53.1593
RA_OF_ASC_NODE = 19.3555
ARG_OF_PERICENTER = 67.3530
MEAN_ANOMALY   = 292.7589

EPHEMERIS_TYPE = 0
CLASSIFICATION_TYPE = U
NORAD_CAT_ID   = 66193
ELEMENT_SET_NO = 999
REV_AT_EPOCH   = 437
BSTAR          = .90596E-3
MEAN_MOTION_DOT = .50298E-3
MEAN_MOTION_DDOT = 0

CCSDS_OMM_VERS = 2.0
CREATION_DATE  = 
ORIGINATOR     = 

OBJECT_NAME    = STARLINK-35374
OBJECT_ID      = 2025-243T
CENTER_NAME    = EARTH
REF_FRAME      = TEME
TIME_SYSTEM    = UTC
MEAN_ELEMENT_THEORY = SGP/SGP4

EPOCH          = 2025-11-23T09:18:35.863776
MEAN_MOTION    = 15.49328215
ECCENTRICITY   = .0001307
INCLINATION    = 53.1594
RA_OF_ASC_NODE = 19.3584
ARG_OF_PERICENTER = 89.2806
MEAN_ANOMALY   = 270.8352

EPHEMERIS_TYPE = 0
CLASSIFICATION_TYPE = U
NORAD_CAT_ID   = 66194
ELEMENT_SET_NO = 999
REV_AT_EPOCH   = 437
BSTAR          = .12368E-2
MEAN_MOTION_DOT = .68993E-3
MEAN_MOTION_DDOT = 0

CCSDS_OMM_VERS = 2.0
CREATION_DATE  = 
ORIGINATOR     = 

OBJECT_NAME    = STARLINK-34813
OBJECT_ID      = 2025-243U
CENTER_NAME    = EARTH
REF_FRAME      = TEME
TIME_SYSTEM    = UTC
MEAN_ELEMENT_THEORY = SGP/SGP4

EPOCH          = 2025-11-23T09:19:05.524896
MEAN_MOTION    = 15.49338369
ECCENTRICITY   = .0001047
INCLINATION    = 53.1593
RA_OF_ASC_NODE = 19.3614
ARG_OF_PERICENTER = 81.9027
MEAN_ANOMALY   = 278.2101

EPHEMERIS_TYPE = 0
CLASSIFICATION_TYPE = U
NORAD_CAT_ID   = 66195
ELEMENT_SET_NO = 999
REV_AT_EPOCH   = 437
BSTAR          = .9861E-3
MEAN_MOTION_DOT = .54837E-3
MEAN_MOTION_DDOT = 0

CCSDS_OMM_VERS = 2.0
CREATION_DATE  = 
ORIGINATOR     = 

OBJECT_NAME    = STARLINK-35409
OBJECT_ID      = 2025-243V
CENTER_NAME    = EARTH
REF_FRAME      = TEME
TIME_SYSTEM    = UTC
MEAN_ELEMENT_THEORY = SGP/SGP4

EPOCH          = 2025-11-23T09:19:35.077152
MEAN_MOTION    = 15.49321912
ECCENTRICITY   = .0001032
INCLINATION    = 53.1593
RA_OF_ASC_NODE = 19.3645
ARG_OF_PERICENTER = 86.3379
MEAN_ANOMALY   = 273.7748

EPHEMERIS_TYPE = 0
CLASSIFICATION_TYPE = U
NORAD_CAT_ID   = 66196
ELEMENT_SET_NO = 999
REV_AT_EPOCH   = 437
BSTAR          = .92225E-3
MEAN_MOTION_DOT = .51204E-3
MEAN_MOTION_DDOT = 0

CCSDS_OMM_VERS = 2.0
CREATION_DATE  = 
ORIGINATOR     = 

OBJECT_NAME    = STARLINK-35518
OBJECT_ID      = 2025-243X
CENTER_NAME    = EARTH
REF_FRAME      = TEME
TIME_SYSTEM    = UTC
MEAN_ELEMENT_THEORY = SGP/SGP4

EPOCH          = 2025-11-23T09:20:34.642176
MEAN_MOTION    = 15.49316575
ECCENTRICITY   = .0001055
INCLINATION    = 53.1591
RA_OF_ASC_NODE = 19.3686
ARG_OF_PERICENTER = 82.8308
MEAN_ANOMALY   = 277.2821

EPHEMERIS_TYPE = 0
CLASSIFICATION_TYPE = U
NORAD_CAT_ID   = 66197
ELEMENT_SET_NO = 999
REV_AT_EPOCH   = 437
BSTAR          = .87841E-3
MEAN_MOTION_DOT = .48723E-3
MEAN_MOTION_DDOT = 0

CCSDS_OMM_VERS = 2.0
CREATION_DATE  = 
ORIGINATOR     = 

OBJECT_NAME    = STARLINK-35259
OBJECT_ID      = 2025-243W
CENTER_NAME    = EARTH
REF_FRAME      = TEME
TIME_SYSTEM    = UTC
MEAN_ELEMENT_THEORY = SGP/SGP4

EPOCH          = 2025-11-23T12:00:02.000160
MEAN_MOTION    = 15.36667459
ECCENTRICITY   = .0001723
INCLINATION    = 53.1592
RA_OF_ASC_NODE = 18.8863
ARG_OF_PERICENTER = 72.4753
MEAN_ANOMALY   = 160.4783

EPHEMERIS_TYPE = 0
CLASSIFICATION_TYPE = U
NORAD_CAT_ID   = 66198
ELEMENT_SET_NO = 999
REV_AT_EPOCH   = 549
BSTAR          = -.61302E-1
MEAN_MOTION_DOT = -.1983909E-1
MEAN_MOTION_DDOT = 0

CCSDS_OMM_VERS = 2.0
CREATION_DATE  = 
ORIGINATOR     = 

OBJECT_NAME    = STARLINK-35509
OBJECT_ID      = 2025-243Y
CENTER_NAME    = EARTH
REF_FRAME      = TEME
TIME_SYSTEM    = UTC
MEAN_ELEMENT_THEORY = SGP/SGP4

EPOCH          = 2025-11-23T10:43:04.755648
MEAN_MOTION    = 15.49341095
ECCENTRICITY   = .0001067
INCLINATION    = 53.1594
RA_OF_ASC_NODE = 19.0098
ARG_OF_PERICENTER = 85.8343
MEAN_ANOMALY   = 274.2788

EPHEMERIS_TYPE = 0
CLASSIFICATION_TYPE = U
NORAD_CAT_ID   = 66199
ELEMENT_SET_NO = 999
REV_AT_EPOCH   = 438
BSTAR          = .12541E-2
MEAN_MOTION_DOT = .70004E-3
MEAN_MOTION_DDOT = 0

CCSDS_OMM_VERS = 2.0
CREATION_DATE  = 
ORIGINATOR     = 

OBJECT_NAME    = STARLINK-35551
OBJECT_ID      = 2025-243Z
CENTER_NAME    = EARTH
REF_FRAME      = TEME
TIME_SYSTEM    = UTC
MEAN_ELEMENT_THEORY = SGP/SGP4

EPOCH          = 2025-11-23T10:44:04.075296
MEAN_MOTION    = 15.49346457
ECCENTRICITY   = .0000886
INCLINATION    = 53.1595
RA_OF_ASC_NODE = 19.0145
ARG_OF_PERICENTER = 80.2397
MEAN_ANOMALY   = 279.8712

EPHEMERIS_TYPE = 0
CLASSIFICATION_TYPE = U
NORAD_CAT_ID   = 66200
ELEMENT_SET_NO = 999
REV_AT_EPOCH   = 438
BSTAR          = .12482E-2
MEAN_MOTION_DOT = .69686E-3
MEAN_MOTION_DDOT = 0

CCSDS_OMM_VERS = 2.0
CREATION_DATE  = 
ORIGINATOR     = 

OBJECT_NAME    = STARLINK-35543
OBJECT_ID      = 2025-243AA
CENTER_NAME    = EARTH
REF_FRAME      = TEME
TIME_SYSTEM    = UTC
MEAN_ELEMENT_THEORY = SGP/SGP4

EPOCH          = 2025-11-23T07:38:46.946688
MEAN_MOTION    = 15.49315245
ECCENTRICITY   = .0000882
INCLINATION    = 53.1594
RA_OF_ASC_NODE = 19.6332
ARG_OF_PERICENTER = 79.3789
MEAN_ANOMALY   = 280.7319

EPHEMERIS_TYPE = 0
CLASSIFICATION_TYPE = U
NORAD_CAT_ID   = 66201
ELEMENT_SET_NO = 999
REV_AT_EPOCH   = 436
BSTAR          = .13315E-2
MEAN_MOTION_DOT = .74326E-3
MEAN_MOTION_DDOT = 0

CCSDS_OMM_VERS = 2.0
CREATION_DATE  = 
ORIGINATOR     = 

OBJECT_NAME    = STARLINK-35534
OBJECT_ID      = 2025-243AB
CENTER_NAME    = EARTH
REF_FRAME      = TEME
TIME_SYSTEM    = UTC
MEAN_ELEMENT_THEORY = SGP/SGP4

EPOCH          = 2025-11-23T10:45:03.515040
MEAN_MOTION    = 15.49333465
ECCENTRICITY   = .0001214
INCLINATION    = 53.1595
RA_OF_ASC_NODE = 19.0197
ARG_OF_PERICENTER = 70.2028
MEAN_ANOMALY   = 289.9112

EPHEMERIS_TYPE = 0
CLASSIFICATION_TYPE = U
NORAD_CAT_ID   = 66202
ELEMENT_SET_NO = 999
REV_AT_EPOCH   = 438
BSTAR          = .17048E-2
MEAN_MOTION_DOT = .95617E-3
MEAN_MOTION_DDOT = 0

CCSDS_OMM_VERS = 2.0
CREATION_DATE  = 
ORIGINATOR     = 

OBJECT_NAME    = STARLINK-35548
OBJECT_ID      = 2025-243AC
CENTER_NAME    = EARTH
REF_FRAME      = TEME
TIME_SYSTEM    = UTC
MEAN_ELEMENT_THEORY = SGP/SGP4

EPOCH          = 2025-11-23T10:45:33.799104
MEAN_MOTION    = 15.49305082
ECCENTRICITY   = .0001941
INCLINATION    = 53.1596
RA_OF_ASC_NODE = 19.0226
ARG_OF_PERICENTER = 33.0660
MEAN_ANOMALY   = 327.0470

EPHEMERIS_TYPE = 0
CLASSIFICATION_TYPE = U
NORAD_CAT_ID   = 66203
ELEMENT_SET_NO = 999
REV_AT_EPOCH   = 438
BSTAR          = .16779E-2
MEAN_MOTION_DOT = .93986E-3
MEAN_MOTION_DDOT = 0

CCSDS_OMM_VERS = 2.0
CREATION_DATE  = 
ORIGINATOR     = 

OBJECT_NAME    = STARLINK-35490
OBJECT_ID      = 2025-243AD
CENTER_NAME    = EARTH
REF_FRAME      = TEME
TIME_SYSTEM    = UTC
MEAN_ELEMENT_THEORY = SGP/SGP4

EPOCH          = 2025-11-23T07:41:01.148352
MEAN_MOTION    = 15.48022939
ECCENTRICITY   = .0003183
INCLINATION    = 53.1592
RA_OF_ASC_NODE = 19.6439
ARG_OF_PERICENTER = 344.5710
MEAN_ANOMALY   = 15.5201

EPHEMERIS_TYPE = 0
CLASSIFICATION_TYPE = U
NORAD_CAT_ID   = 66204
ELEMENT_SET_NO = 999
REV_AT_EPOCH   = 436
BSTAR          = .18492E-2
MEAN_MOTION_DOT = .99144E-3
MEAN_MOTION_DDOT = 0

